STARLINK-36842          
1 67884U 26035F   26064.83334490 -.01041812  33998-3 -25161-2 0  9992
2 67884  97.2748 356.8815 0001226  75.3648   1.8449 15.96409893  3139
STARLINK-36826          
1 67885U 26035G   26064.83334490 -.01035159  33625-3 -24893-2 0  9998
2 67885  97.2746 356.8828 0001194  88.2049 352.0429 15.96488432  3139
STARLINK-36390          
1 67886U 26035H   26064.83334490 -.01033494  33552-3 -24750-2 0  9990
2 67886  97.2741 356.8845 0001142  80.4304   4.3306 15.96565308  3189
STARLINK-36368          
1 67887U 26035J   26064.83334490 -.01050049  34587-3 -25032-2 0  9999
2 67887  97.2742 356.8862 0001170  86.3694   2.6953 15.96651765  3135
STARLINK-36801          
1 67888U 26035K   26064.83334490 -.01071009  35913-3 -25409-2 0  9991
2 67888  97.2737 356.8881 0001213  87.8299   5.3854 15.96743237  3132
STARLINK-36372          
1 67889U 26035L   26064.83334490 -.01142807  40581-3 -26850-2 0  9995
2 67889  97.2731 356.8911 0001218  95.1494   6.0658 15.96932544  3136
STARLINK-36363          
1 67890U 26035M   26064.83334490 -.01108515  38315-3 -26175-2 0  9997
2 67890  97.2736 356.8902 0001285  91.2740   6.6019 15.96835291  3136
STARLINK-36816          
1 67891U 26035N   26064.83334490 -.01259758  49064-3 -28220-2 0  9990
2 67891  97.2719 356.9145 0001244  84.1819  76.8127 15.97820871  3027
STARLINK-36813          
1 67892U 26035P   26064.83334490 -.01233369  46957-3 -28297-2 0  9993
2 67892  97.2713 356.9032 0001246  81.3158  52.9623 15.97381270  3137
STARLINK-36803          
1 67893U 26035Q   26064.83334490 -.01208094  45014-3 -28273-2 0  9998
2 67893  97.2730 356.8930 0001307  87.6587  18.5335 15.97013559  3136
STARLINK-36846          
1 67894U 26035R   26064.83334490 -.01217994  45752-3 -28336-2 0  9997
2 67894  97.2727 356.8973 0001415 101.6642  14.6668 15.97123547  3134
STARLINK-36866          
1 67895U 26035S   26064.83334490 -.01227859  46473-3 -28466-2 0  9994
2 67895  97.2726 356.8990 0001292  78.3109  42.4767 15.97189368  3136
STARLINK-36877          
1 67896U 26035T   26064.83334490 -.01201065  44553-3 -28037-2 0  9997
2 67896  97.2728 356.8951 0001317  80.2361  31.2261 15.97059310  3134
STARLINK-36870          
1 67897U 26035U   26064.83334490 -.01229976  46650-3 -28426-2 0  9991
2 67897  97.2723 356.9007 0001311  83.0569  42.7749 15.97246647  3137
STARLINK-36810          
1 67898U 26035V   26064.83334490 -.01243463  47638-3 -28630-2 0  9993
2 67898  97.2721 356.9023 0001214  83.2835  46.6354 15.97318061  3139
STARLINK-36878          
1 67899U 26035W   26064.83334490 -.01236338  47203-3 -28252-2 0  9995
2 67899  97.2720 356.9058 0001319  99.1360  38.8958 15.97454530  3137
